[{"CCSDS_OMM_VERS":"2.0","COMMENT":"GENERATED VIA SPACE-TRACK.ORG API","CREATION_DATE":"2022-10-24T17:56:30","ORIGINATOR":"18 SPCS","OBJECT_NAME":"GALILEO-FM3","OBJECT_ID":"2012-055A","CENTER_NAME":"EARTH","REF_FRAME":"TEME","TIME_SYSTEM":"UTC","MEAN_ELEMENT_THEORY":"SGP4","EPOCH":"2022-10-23T18:04:53.851584","MEAN_MOTION":"1.70473763","ECCENTRICITY":"0.00018440","INCLINATION":"55.1731","RA_OF_ASC_NODE":"138.1706","ARG_OF_PERICENTER":"238.5047","MEAN_ANOMALY":"121.5786","EPHEMERIS_TYPE":"0","CLASSIFICATION_TYPE":"U","NORAD_CAT_ID":"38857","ELEMENT_SET_NO":"999","REV_AT_EPOCH":"6229","BSTAR":"0.00000000000000","MEAN_MOTION_DOT":"0.00000090","MEAN_MOTION_DDOT":"0.0000000000000","SEMIMAJOR_AXIS":"29600.347","PERIOD":"844.705","APOAPSIS":"23227.671","PERIAPSIS":"23216.754","OBJECT_TYPE":"PAYLOAD","RCS_SIZE":"LARGE","COUNTRY_CODE":"ESA","LAUNCH_DATE":"2012-10-12","SITE":"FRGUI","DECAY_DATE":null,"FILE":"3631438","GP_ID":"216032052","TLE_LINE0":"0 GALILEO-FM3","TLE_LINE1":"1 38857U 12055A   22296.75340106  .00000090  00000-0  00000-0 0  9990","TLE_LINE2":"2 38857  55.1731 138.1706 0001844 238.5047 121.5786  1.70473763 62294"},{"CCSDS_OMM_VERS":"2.0","COMMENT":"GENERATED VIA SPACE-TRACK.ORG API","CREATION_DATE":"2022-10-25T21:55:21","ORIGINATOR":"18 SPCS","OBJECT_NAME":"GALILEO-FM3","OBJECT_ID":"2012-055A","CENTER_NAME":"EARTH","REF_FRAME":"TEME","TIME_SYSTEM":"UTC","MEAN_ELEMENT_THEORY":"SGP4","EPOCH":"2022-10-24T22:14:15.157248","MEAN_MOTION":"1.70473728","ECCENTRICITY":"0.00018400","INCLINATION":"55.1735","RA_OF_ASC_NODE":"138.1383","ARG_OF_PERICENTER":"237.4399","MEAN_ANOMALY":"122.6401","EPHEMERIS_TYPE":"0","CLASSIFICATION_TYPE":"U","NORAD_CAT_ID":"38857","ELEMENT_SET_NO":"999","REV_AT_EPOCH":"6231","BSTAR":"0.00000000000000","MEAN_MOTION_DOT":"0.00000092","MEAN_MOTION_DDOT":"0.0000000000000","SEMIMAJOR_AXIS":"29600.352","PERIOD":"844.705","APOAPSIS":"23227.663","PERIAPSIS":"23216.770","OBJECT_TYPE":"PAYLOAD","RCS_SIZE":"LARGE","COUNTRY_CODE":"ESA","LAUNCH_DATE":"2012-10-12","SITE":"FRGUI","DECAY_DATE":null,"FILE":"3633075","GP_ID":"216115467","TLE_LINE0":"0 GALILEO-FM3","TLE_LINE1":"1 38857U 12055A   22297.92656432  .00000092  00000-0  00000-0 0  9994","TLE_LINE2":"2 38857  55.1735 138.1383 0001840 237.4399 122.6401  1.70473728 62313"},{"CCSDS_OMM_VERS":"2.0","COMMENT":"GENERATED VIA SPACE-TRACK.ORG API","CREATION_DATE":"2022-10-27T22:56:12","ORIGINATOR":"18 SPCS","OBJECT_NAME":"GALILEO-FM3","OBJECT_ID":"2012-055A","CENTER_NAME":"EARTH","REF_FRAME":"TEME","TIME_SYSTEM":"UTC","MEAN_ELEMENT_THEORY":"SGP4","EPOCH":"2022-10-27T06:32:56.577120","MEAN_MOTION":"1.70473650","ECCENTRICITY":"0.00018540","INCLINATION":"55.1746","RA_OF_ASC_NODE":"138.0738","ARG_OF_PERICENTER":"234.3670","MEAN_ANOMALY":"125.6976","EPHEMERIS_TYPE":"0","CLASSIFICATION_TYPE":"U","NORAD_CAT_ID":"38857","ELEMENT_SET_NO":"999","REV_AT_EPOCH":"6249","BSTAR":"0.00000000000000","MEAN_MOTION_DOT":"0.00000085","MEAN_MOTION_DDOT":"0.0000000000000","SEMIMAJOR_AXIS":"29600.361","PERIOD":"844.705","APOAPSIS":"23227.713","PERIAPSIS":"23216.738","OBJECT_TYPE":"PAYLOAD","RCS_SIZE":"LARGE","COUNTRY_CODE":"ESA","LAUNCH_DATE":"2012-10-12","SITE":"FRGUI","DECAY_DATE":null,"FILE":"3635814","GP_ID":"216309038","TLE_LINE0":"0 GALILEO-FM3","TLE_LINE1":"1 38857U 12055A   22300.27287705  .00000085  00000-0  00000+0 0  9991","TLE_LINE2":"2 38857  55.1746 138.0738 0001854 234.3670 125.6976  1.70473650 62494"},{"CCSDS_OMM_VERS":"2.0","COMMENT":"GENERATED VIA SPACE-TRACK.ORG API","CREATION_DATE":"2022-10-28T18:02:48","ORIGINATOR":"18 SPCS","OBJECT_NAME":"GALILEO-FM3","OBJECT_ID":"2012-055A","CENTER_NAME":"EARTH","REF_FRAME":"TEME","TIME_SYSTEM":"UTC","MEAN_ELEMENT_THEORY":"SGP4","EPOCH":"2022-10-27T20:37:36.776352","MEAN_MOTION":"1.70473636","ECCENTRICITY":"0.00018560","INCLINATION":"55.1750","RA_OF_ASC_NODE":"138.0576","ARG_OF_PERICENTER":"234.3056","MEAN_ANOMALY":"125.7542","EPHEMERIS_TYPE":"0","CLASSIFICATION_TYPE":"U","NORAD_CAT_ID":"38857","ELEMENT_SET_NO":"999","REV_AT_EPOCH":"6236","BSTAR":"0.00000000000000","MEAN_MOTION_DOT":"0.00000081","MEAN_MOTION_DDOT":"0.0000000000000","SEMIMAJOR_AXIS":"29600.362","PERIOD":"844.705","APOAPSIS":"23227.721","PERIAPSIS":"23216.733","OBJECT_TYPE":"PAYLOAD","RCS_SIZE":"LARGE","COUNTRY_CODE":"ESA","LAUNCH_DATE":"2012-10-12","SITE":"FRGUI","DECAY_DATE":null,"FILE":"3636776","GP_ID":"216367772","TLE_LINE0":"0 GALILEO-FM3","TLE_LINE1":"1 38857U 12055A   22300.85945343  .00000081  00000-0  00000-0 0  9991","TLE_LINE2":"2 38857  55.1750 138.0576 0001856 234.3056 125.7542  1.70473636 62369"},{"CCSDS_OMM_VERS":"2.0","COMMENT":"GENERATED VIA SPACE-TRACK.ORG API","CREATION_DATE":"2022-10-30T05:36:09","ORIGINATOR":"18 SPCS","OBJECT_NAME":"GALILEO-FM3","OBJECT_ID":"2012-055A","CENTER_NAME":"EARTH","REF_FRAME":"TEME","TIME_SYSTEM":"UTC","MEAN_ELEMENT_THEORY":"SGP4","EPOCH":"2022-10-29T00:46:57.338976","MEAN_MOTION":"1.70473620","ECCENTRICITY":"0.00018750","INCLINATION":"55.1753","RA_OF_ASC_NODE":"138.0254","ARG_OF_PERICENTER":"233.7747","MEAN_ANOMALY":"126.2766","EPHEMERIS_TYPE":"0","CLASSIFICATION_TYPE":"U","NORAD_CAT_ID":"38857","ELEMENT_SET_NO":"999","REV_AT_EPOCH":"6238","BSTAR":"0.00000000000000","MEAN_MOTION_DOT":"0.00000074","MEAN_MOTION_DDOT":"0.0000000000000","SEMIMAJOR_AXIS":"29600.364","PERIOD":"844.705","APOAPSIS":"23227.779","PERIAPSIS":"23216.679","OBJECT_TYPE":"PAYLOAD","RCS_SIZE":"LARGE","COUNTRY_CODE":"ESA","LAUNCH_DATE":"2012-10-12","SITE":"FRGUI","DECAY_DATE":null,"FILE":"3637863","GP_ID":"216470156","TLE_LINE0":"0 GALILEO-FM3","TLE_LINE1":"1 38857U 12055A   22302.03260809  .00000074  00000-0  00000-0 0  9992","TLE_LINE2":"2 38857  55.1753 138.0254 0001875 233.7747 126.2766  1.70473620 62385"},{"CCSDS_OMM_VERS":"2.0","COMMENT":"GENERATED VIA SPACE-TRACK.ORG API","CREATION_DATE":"2022-10-29T18:36:28","ORIGINATOR":"18 SPCS","OBJECT_NAME":"GALILEO-FM3","OBJECT_ID":"2012-055A","CENTER_NAME":"EARTH","REF_FRAME":"TEME","TIME_SYSTEM":"UTC","MEAN_ELEMENT_THEORY":"SGP4","EPOCH":"2022-10-29T00:46:57.368352","MEAN_MOTION":"1.70473621","ECCENTRICITY":"0.00018690","INCLINATION":"55.1754","RA_OF_ASC_NODE":"138.0254","ARG_OF_PERICENTER":"233.7361","MEAN_ANOMALY":"126.3152","EPHEMERIS_TYPE":"0","CLASSIFICATION_TYPE":"U","NORAD_CAT_ID":"38857","ELEMENT_SET_NO":"999","REV_AT_EPOCH":"6238","BSTAR":"0.00000000000000","MEAN_MOTION_DOT":"0.00000074","MEAN_MOTION_DDOT":"0.0000000000000","SEMIMAJOR_AXIS":"29600.364","PERIOD":"844.705","APOAPSIS":"23227.761","PERIAPSIS":"23216.697","OBJECT_TYPE":"PAYLOAD","RCS_SIZE":"LARGE","COUNTRY_CODE":"ESA","LAUNCH_DATE":"2012-10-12","SITE":"FRGUI","DECAY_DATE":null,"FILE":"3637424","GP_ID":"216434094","TLE_LINE0":"0 GALILEO-FM3","TLE_LINE1":"1 38857U 12055A   22302.03260843  .00000074  00000-0  00000-0 0  9990","TLE_LINE2":"2 38857  55.1754 138.0254 0001869 233.7361 126.3152  1.70473621 62382"},{"CCSDS_OMM_VERS":"2.0","COMMENT":"GENERATED VIA SPACE-TRACK.ORG API","CREATION_DATE":"2022-11-01T02:12:57","ORIGINATOR":"18 SPCS","OBJECT_NAME":"GALILEO-FM3","OBJECT_ID":"2012-055A","CENTER_NAME":"EARTH","REF_FRAME":"TEME","TIME_SYSTEM":"UTC","MEAN_ELEMENT_THEORY":"SGP4","EPOCH":"2022-10-30T19:00:59.027904","MEAN_MOTION":"1.70473606","ECCENTRICITY":"0.00018710","INCLINATION":"55.1761","RA_OF_ASC_NODE":"137.9769","ARG_OF_PERICENTER":"233.4569","MEAN_ANOMALY":"126.5873","EPHEMERIS_TYPE":"0","CLASSIFICATION_TYPE":"U","NORAD_CAT_ID":"38857","ELEMENT_SET_NO":"999","REV_AT_EPOCH":"6241","BSTAR":"0.00000000000000","MEAN_MOTION_DOT":"0.00000068","MEAN_MOTION_DDOT":"0.0000000000000","SEMIMAJOR_AXIS":"29600.366","PERIOD":"844.706","APOAPSIS":"23227.769","PERIAPSIS":"23216.692","OBJECT_TYPE":"PAYLOAD","RCS_SIZE":"LARGE","COUNTRY_CODE":"ESA","LAUNCH_DATE":"2012-10-12","SITE":"FRGUI","DECAY_DATE":null,"FILE":"3639522","GP_ID":"216610411","TLE_LINE0":"0 GALILEO-FM3","TLE_LINE1":"1 38857U 12055A   22303.79234986  .00000068  00000-0  00000-0 0  9996","TLE_LINE2":"2 38857  55.1761 137.9769 0001871 233.4569 126.5873  1.70473606 62418"},{"CCSDS_OMM_VERS":"2.0","COMMENT":"GENERATED VIA SPACE-TRACK.ORG API","CREATION_DATE":"2022-10-31T22:56:13","ORIGINATOR":"18 SPCS","OBJECT_NAME":"GALILEO-FM3","OBJECT_ID":"2012-055A","CENTER_NAME":"EARTH","REF_FRAME":"TEME","TIME_SYSTEM":"UTC","MEAN_ELEMENT_THEORY":"SGP4","EPOCH":"2022-10-30T19:00:59.027904","MEAN_MOTION":"1.70473606","ECCENTRICITY":"0.00018710","INCLINATION":"55.1761","RA_OF_ASC_NODE":"137.9769","ARG_OF_PERICENTER":"233.4569","MEAN_ANOMALY":"126.5873","EPHEMERIS_TYPE":"0","CLASSIFICATION_TYPE":"U","NORAD_CAT_ID":"38857","ELEMENT_SET_NO":"999","REV_AT_EPOCH":"6255","BSTAR":"0.00000000000000","MEAN_MOTION_DOT":"0.00000068","MEAN_MOTION_DDOT":"0.0000000000000","SEMIMAJOR_AXIS":"29600.366","PERIOD":"844.706","APOAPSIS":"23227.769","PERIAPSIS":"23216.692","OBJECT_TYPE":"PAYLOAD","RCS_SIZE":"LARGE","COUNTRY_CODE":"ESA","LAUNCH_DATE":"2012-10-12","SITE":"FRGUI","DECAY_DATE":null,"FILE":"3638248","GP_ID":"216563940","TLE_LINE0":"0 GALILEO-FM3","TLE_LINE1":"1 38857U 12055A   22303.79234986  .00000068  00000-0  00000+0 0  9995","TLE_LINE2":"2 38857  55.1761 137.9769 0001871 233.4569 126.5873  1.70473606 62553"}]